[
  {
    "id": 1,
    "name": "Stephi Christopher",
    "address": {
      "streetName": "Bay",
      "streetNumber": 73009,
      "postalCode": "533 74",
      "town": "Horní Jelení"
    }
  },
  {
    "id": 2,
    "name": "Alasdair Trigwell",
    "address": {
      "streetName": "Melvin",
      "streetNumber": 2,
      "postalCode": "5782",
      "town": "Waipawa"
    }
  },
  {
    "id": 3,
    "name": "Vera Haylett",
    "address": {
      "streetName": "Monument",
      "streetNumber": 12,
      "postalCode": "144 40",
      "town": "Rönninge"
    }
  },
  {
    "id": 4,
    "name": "Willette Thredder",
    "address": {
      "streetName": "Karstens",
      "streetNumber": 14975,
      "postalCode": "67961 CEDEX 9",
      "town": "Strasbourg"
    }
  },
  {
    "id": 5,
    "name": "Jaclyn Cestard",
    "address": {
      "streetName": "Nova",
      "streetNumber": 1429,
      "postalCode": "6234 AB",
      "town": "Cetinje"
    }
  },
  {
    "id": 6,
    "name": "Raimondo Di Biasio",
    "address": {
      "streetName": "Westport",
      "streetNumber": 2,
      "postalCode": "1950",
      "town": "Comagascas"
    }
  },
  {
    "id": 7,
    "name": "Clevie Swyer",
    "address": {
      "streetName": "Coolidge",
      "streetNumber": 745,
      "postalCode": "1442 HG",
      "town": "Karakol"
    }
  },
  {
    "id": 8,
    "name": "Darby Bysaker",
    "address": {
      "streetName": "Forster",
      "streetNumber": 83454,
      "postalCode": "6343 IF",
      "town": "Ḩabūr"
    }
  },
  {
    "id": 9,
    "name": "Katheryn Goldster",
    "address": {
      "streetName": "Comanche",
      "streetNumber": 62575,
      "postalCode": "656546",
      "town": "Pakemitan"
    }
  },
  {
    "id": 10,
    "name": "Consuelo Theml",
    "address": {
      "streetName": "Scoville",
      "streetNumber": 61486,
      "postalCode": "6577ya",
      "town": "Bamenda"
    }
  },
  {
    "id": 11,
    "name": "Meridel Jedraszek",
    "address": {
      "streetName": "Johnson",
      "streetNumber": 340,
      "postalCode": "7556 HH",
      "town": "Lianrao"
    }
  },
  {
    "id": 12,
    "name": "Townsend Starmore",
    "address": {
      "streetName": "Lake View",
      "streetNumber": 73955,
      "postalCode": "85600-000",
      "town": "Francisco Beltrão"
    }
  },
  {
    "id": 13,
    "name": "Byram Worlock",
    "address": {
      "streetName": "Donald",
      "streetNumber": 90,
      "postalCode": "8463 AA",
      "town": "Sangkalputung"
    }
  },
  {
    "id": 14,
    "name": "Alicia Reidie",
    "address": {
      "streetName": "Rigney",
      "streetNumber": 75319,
      "postalCode": "92880",
      "town": "Adolfo Ruiz Cortines"
    }
  },
  {
    "id": 15,
    "name": "Sadye Hulett",
    "address": {
      "streetName": "Thompson",
      "streetNumber": 92260,
      "postalCode": "652312",
      "town": "Tabaquite"
    }
  },
  {
    "id": 16,
    "name": "Yorgos Leneham",
    "address": {
      "streetName": "Lotheville",
      "streetNumber": 2,
      "postalCode": "161213",
      "town": "Krasnyy Profintern"
    }
  },
  {
    "id": 17,
    "name": "Felice Catmull",
    "address": {
      "streetName": "Fair Oaks",
      "streetNumber": 93,
      "postalCode": "831 37",
      "town": "Östersund"
    }
  },
  {
    "id": 18,
    "name": "Eudora Burbage",
    "address": {
      "streetName": "Mccormick",
      "streetNumber": 584,
      "postalCode": "662680",
      "town": "Idrinskoye"
    }
  },
  {
    "id": 19,
    "name": "Millisent Drinkwater",
    "address": {
      "streetName": "Miller",
      "streetNumber": 1,
      "postalCode": "5209",
      "town": "Tambong"
    }
  },
  {
    "id": 20,
    "name": "Ralf Fayne",
    "address": {
      "streetName": "Elmside",
      "streetNumber": 1749,
      "postalCode": "1234",
      "town": "Shatoja"
    }
  }
]
